{"version": 0.6, "generator": "Overpass API 0.7.60 f4c14d41", "osm3s": {"timestamp_osm_base": "2023-04-17T19:07:08Z", "copyright": "The data included in this document is from www.openstreetmap.org. The data is made available under ODbL."}, "elements": [{"type": "node", "id": 1297282272, "lat": 40.7449202, "lon": -73.9831434, "tags": {"amenity": "restaurant", "cuisine": "mexican", "name": "Fresh Mexican Grill"}}, {"type": "node", "id": 1383914860, "lat": 40.7456818, "lon": -73.9881244, "tags": {"addr:city": "New York", "addr:housenumber": "16", "addr:postcode": "10001", "addr:state": "NY", "addr:street": "West 29th Street", "amenity": "restaurant", "cuisine": "gastropub", "delivery": "no", "name": "The Breslin", "opening_hours": "Mo-Su 07:00-02:00", "outdoor_seating": "no", "phone": "+1 212-679-1939", "smoking": "no", "wheelchair": "yes"}}, {"type": "node", "id": 1416478552, "lat": 40.7459042, "lon": -73.9803026, "tags": {"addr:housenumber": "222", "addr:postcode": "10016", "addr:street": "Lexington Avenue", "amenity": "restaurant", "cuisine": "diner", "drink:beer": "yes", "drink:wine": "yes", "name": "Murry Hill Diner", "opening_hours": "Mo-Su 06:00-23:00", "website": "https://www.murrayhilldiner.com"}}, {"type": "node", "id": 1427499791, "lat": 40.7517125, "lon": -73.9799108, "tags": {"amenity": "restaurant", "name": "The Heavenly Burger"}}, {"type": "node", "id": 1427499833, "lat": 40.7510771, "lon": -73.9807748, "tags": {"amenity": "restaurant", "name": "Salute"}}, {"type": "node", "id": 1709979773, "lat": 40.7451286, "lon": -73.9854212}, {"type": "node", "id": 2081537413, "lat": 40.7474905, "lon": -73.9851225, "tags": {"addr:city": "New York", "addr:country": "US", "addr:housenumber": "525", "addr:postcode": "10016", "addr:state": "NY", "addr:street": "5th Avenue", "amenity": "restaurant", "brand": "Bonchon Chicken", "brand:wikidata": "Q4941248", "brand:wikipedia": "en:Bonchon Chicken", "cuisine": "chicken;korean;sushi", "name": "Bonchon Chicken"}}, {"type": "node", "id": 2081539634, "lat": 40.7471688, "lon": -73.9852137, "tags": {"addr:city": "New York", "addr:country": "US", "addr:housenumber": "319", "addr:postcode": "10016", "addr:state": "NY", "addr:street": "5th Avenue", "amenity": "restaurant", "cuisine": "chicken;korean", "name": "LOVE Korean BBQ", "phone": "+1-646-669-8147", "website": "https://lovekoreanbbq.com/"}}, {"type": "node", "id": 2479458329, "lat": 40.7499029, "lon": -73.9856982, "tags": {"addr:city": "New York", "addr:housenumber": "35", "addr:postcode": "10001", "addr:street": "West 35th Street", "amenity": "restaurant", "cuisine": "korean;chinese", "name": "Hyo Dong Gak", "phone": "+1 212 695-7167", "website": "http://hyodonggaknyc.com/"}}, {"type": "node", "id": 2549960961, "lat": 40.7453942, "lon": -73.9912033, "tags": {"addr:city": "New York", "addr:housenumber": "793", "addr:postcode": "10001", "addr:state": "NY", "addr:street": "6th Avenue", "air_conditioning": "yes", "amenity": "restaurant", "cuisine": "korean", "name": "Hee Korean BBQ Grill"}}, {"type": "node", "id": 2621558446, "lat": 40.7442736, "lon": -73.9904326, "tags": {"addr:city": "New York", "addr:housenumber": "30", "addr:postcode": "10010", "addr:street": "West 26th Street", "amenity": "restaurant", "bar": "yes", "cuisine": "barbecue", "delivery": "Mo-Su 12:15-20:00", "internet_access": "wlan", "name": "Hill Country Barbecue Market", "opening_hours": "Mo,Tu 14:00-21:00; We-Su 12:00-21:00", "phone": "(212) 255-4544", "smoking": "outside", "takeaway": "yes", "website": "https://www.hillcountry.com", "wheelchair": "limited"}}, {"type": "node", "id": 2621558482, "lat": 40.7443244, "lon": -73.9900461, "tags": {"addr:city": "New York", "addr:housename": "29", "addr:postcode": "10001", "addr:street": "West 26th Street", "amenity": "restaurant", "cuisine": "latin_american", "name": "Latin American Restaurant", "phone": "2126892570", "wheelchair": "no"}}, {"type": "node", "id": 2703449252, "lat": 40.7483789, "lon": -73.9906177, "tags": {"addr:housenumber": "132", "addr:postcode": "10001", "addr:street": "West 31st Street", "amenity": "restaurant", "cuisine": "american", "delivery": "yes", "fixme": "restaurant was renamed but all other info is from previous restaurant \"Friedmans\", investigate", "name": "Ichiran", "opening_hours": "Mo-Fr 07:30-22:00; Sa 8:30-16:00, 17:00-10:00; Su 08:30-16:00, 17:00-21:00", "smoking": "no", "takeaway": "yes", "website": "http://www.friedmansrestaurant.com/location/herald-sq/"}}, {"type": "node", "id": 2703449330, "lat": 40.7482027, "lon": -73.9887195, "tags": {"addr:housenumber": "888", "addr:postcode": "10001", "addr:street": "6th Avenue", "amenity": "restaurant", "cuisine": "noodle", "name": "Yong Kang Street"}}, {"type": "node", "id": 2705021741, "lat": 40.7457133, "lon": -73.9905134, "tags": {"addr:city": "New York", "addr:housenumber": "800", "addr:postcode": "10001", "addr:street": "6th Avenue", "amenity": "restaurant", "cuisine": "pizza", "name": "Waldy's Woodfire Pizza & Penne"}}, {"type": "node", "id": 2706939803, "lat": 40.745401, "lon": -73.9848544, "tags": {"addr:housenumber": "118", "addr:postcode": "10016", "addr:street": "Madison Avenue", "amenity": "restaurant", "name": "Nonono"}}, {"type": "node", "id": 2706939961, "lat": 40.7449808, "lon": -73.9851374}, {"type": "node", "id": 2706939976, "lat": 40.7450421, "lon": -73.9850928}, {"type": "node", "id": 2706939988, "lat": 40.7451079, "lon": -73.9854363}, {"type": "node", "id": 2706940001, "lat": 40.7451683, "lon": -73.9853924}, {"type": "node", "id": 2709306570, "lat": 40.746788, "lon": -73.9843691, "tags": {"addr:housenumber": "17", "addr:postcode": "10016", "addr:street": "East 32nd Street", "amenity": "restaurant", "cuisine": "asian", "name": "Donsbogam Original"}}, {"type": "node", "id": 2709306657, "lat": 40.7479712, "lon": -73.9846943, "tags": {"addr:housenumber": "345", "addr:postcode": "10016", "addr:street": "5th Avenue", "amenity": "restaurant", "cuisine": "asian", "name": "ETC Eatery", "opening_hours": "Mo-Fr 06:00-19:00; Sa 07:00-19:00; Su closed", "phone": "+1 646-410-0288"}}, {"type": "node", "id": 2709306713, "lat": 40.7475091, "lon": -73.9860606, "tags": {"addr:housenumber": "5", "addr:postcode": "10001", "addr:street": "West 32nd Street", "amenity": "restaurant", "branch": "Manhattan, NY", "cuisine": "korean", "delivery": "yes", "level": "0", "name": "BCD Tofu House", "opening_hours": "Su-Th 10:30-24:00; Fr, Sa 10:30-03:00", "phone": "+1 212-967-1900", "takeaway": "yes", "website": "https://www.bcdtofuhouse.com"}}, {"type": "node", "id": 2710845397, "lat": 40.7469172, "lon": -73.9805077, "tags": {"addr:housenumber": "107", "addr:postcode": "10016", "addr:street": "East 34th Street", "amenity": "restaurant", "cuisine": "italian", "name": "Villa Berulia", "opening_hours": "Tu-Fr 11:30-22:00; Sa 16:00-22:00"}}, {"type": "node", "id": 2710917577, "lat": 40.7507533, "lon": -73.9819745, "tags": {"addr:city": "New York", "addr:housenumber": "5", "addr:postcode": "10016", "addr:state": "NY", "addr:street": "East 38th Street", "amenity": "restaurant", "cuisine": "mexican", "email": "info@mdb38.com", "name": "Mad Dog & Beans Mexican Cantina", "opening_hours": "Su-Th 12:00-22:00; We 12:00-23:00; Th-Sa 12:00-00:00", "payment:credit_cards": "yes", "payment:debit_cards": "yes", "payment:nfc_mobile_payments": "yes", "phone": "+1-646-998-5722", "website": "https://www.maddogandbeans.com"}}, {"type": "node", "id": 2714855295, "lat": 40.7500156, "lon": -73.9811517, "tags": {"addr:city": "New York", "addr:housenumber": "241", "addr:postcode": "10016", "addr:state": "NY", "addr:street": "Madison Avenue", "amenity": "restaurant", "branch": "Madison 38th", "cuisine": "italian", "name": "Serafina Italian Restaurant", "opening_hours": "Mo-Su 07:00-22:00", "payment:contactless": "yes", "payment:credit_cards": "yes", "payment:debit_cards": "yes", "phone": "+1-646-779-7667", "website": "https://www.serafinarestaurant.com/location/serafina-madison-38th/"}}, {"type": "node", "id": 2910889370, "lat": 40.7446867, "lon": -73.9908292, "tags": {"addr:city": "New York", "addr:housenumber": "55", "addr:postcode": "10010", "addr:street": "West 26th Street", "amenity": "restaurant", "cuisine": "grilled_cheese;sandwich", "name": "Melt Shop"}}, {"type": "node", "id": 3040295633, "lat": 40.7512973, "lon": -73.9838618, "tags": {"addr:housenumber": "20", "addr:street": "West 38th Street", "amenity": "restaurant", "cocktails": "yes", "cuisine": "australian", "delivery": "yes", "drink:beer": "yes", "drink:wine": "yes", "email": "info@theaustraliannyc.com", "happy_hours": "16:00-20:00", "name": "The Australian NYC", "opening_hours": "Mo, Su 11:30-00:00; Tu, We 11:30-23:00; Th 11:30-02:00; Fr, Sa 11:30-04:00", "phone": "+1 212-869-9601", "reservation": "yes", "takeaway": "yes", "website": "http://theaustraliannyc.com", "wikidata": "Q15032055"}}, {"type": "node", "id": 3068326556, "lat": 40.750773, "lon": -73.9864091, "tags": {"addr:city": "New York", "addr:housenumber": "72", "addr:postcode": "10018", "addr:street": "West 36th Street", "amenity": "restaurant", "cuisine": "steak", "name": "Keens Steakhouse", "website": "http://www.keens.com/", "wikidata": "Q6382920"}}, {"type": "node", "id": 3145937665, "lat": 40.7440806, "lon": -73.9894469, "tags": {"addr:city": "New York", "addr:housenumber": "13", "addr:postcode": "10010", "addr:state": "NY", "addr:street": "West 26th Street", "amenity": "restaurant", "cuisine": "japanese", "name": "Izakaya NoMad", "opening_hours": "Mo-We 12:00-14:30, 17:30-00:00; Th-Fr 12:00-14:30, 17:30-01:00; Sa 17:30-01:00", "phone": "+1 212-213-6258", "smoking": "no", "website": "https://www.izakayanomad.com/"}}, {"type": "node", "id": 3262342840, "lat": 40.7505177, "lon": -73.9876147}, {"type": "node", "id": 3262342841, "lat": 40.7505161, "lon": -73.9876262}, {"type": "node", "id": 3262342842, "lat": 40.7504961, "lon": -73.9876324}, {"type": "node", "id": 3262342849, "lat": 40.7505047, "lon": -73.9876353}, {"type": "node", "id": 3356089617, "lat": 40.7451081, "lon": -73.9842044, "tags": {"addr:housenumber": "29", "addr:street": "East 30th Street", "amenity": "restaurant", "brewery": "various", "cuisine": "irish;coffee", "happy_hours": "Mo-Su 15:00-20:00", "name": "The Crooked Knife", "opening_hours": "Mo-Su 11:00-04:00", "payment:cash": "yes", "payment:credit_cards": "yes", "phone": "+1-212-696-2593", "reservation": "yes", "takeaway": "yes", "toilets": "yes", "website": "http://www.thecrookedknife.com/"}}, {"type": "node", "id": 3356089618, "lat": 40.7449212, "lon": -73.9837645, "tags": {"amenity": "restaurant", "cuisine": "wine", "name": "Wine:30"}}, {"type": "node", "id": 3356089622, "lat": 40.7457391, "lon": -73.9846188, "tags": {"amenity": "restaurant", "atm": "yes", "cuisine": "pizza", "name": "Bella Napoli", "takeaway": "yes", "toilets": "yes"}}, {"type": "node", "id": 3463814923, "lat": 40.7477981, "lon": -73.9872728, "tags": {"addr:city": "New York", "addr:housenumber": "34", "addr:postcode": "10001", "addr:state": "NY", "addr:street": "West 32nd Street", "amenity": "restaurant", "cuisine": "korean", "name": "Seoul Garden", "opening_hours": "Su-Th 11:00-24:00, Fr-Sa 11:00-02:00", "phone": "212-736-9002", "source": "business card survey"}}, {"type": "node", "id": 3507260979, "lat": 40.7516741, "lon": -73.9898634, "tags": {"addr:city": "New York", "addr:housenumber": "463", "addr:postcode": "10018", "addr:state": "NY", "addr:street": "7th Avenue", "amenity": "restaurant", "cuisine": "american;diner", "drink:coffee": "yes", "drink:tea": "yes", "name": "Andrews NYC Diner", "opening_hours": "Mo-Th 06:00-22:00; Fr 06:00-23:00; Sa, Su 07:00-23:00", "phone": "+1-212-695-1962", "reservation": "yes", "takeaway": "yes", "website": "https://andrewsny.com/", "wheelchair": "yes"}}, {"type": "node", "id": 3775439864, "lat": 40.7445548, "lon": -73.9808795, "tags": {"addr:city": "New York", "addr:housenumber": "181", "addr:postcode": "10016", "addr:state": "NY", "addr:street": "Lexington Avenue", "amenity": "restaurant", "bar": "yes", "cuisine": "barbecue", "drink:beer": "draught", "drink:liquor": "yes", "drink:wine": "yes", "name": "Brother Jimmy's BBQ", "opening_hours": "Mo-We 04:00-24:00; Th-Sa 12:00-02:00; Su 12:00-24:00", "outdoor_seating": "sidewalk", "phone": "+1-212-779-7427", "website": "https://brotherjimmys.com/locations/new-york-city/murray-hill/"}}, {"type": "node", "id": 3826926964, "lat": 40.7445423, "lon": -73.9834869, "tags": {"amenity": "restaurant", "brand": "California Pizza Kitchen", "brand:wikidata": "Q15109854", "brand:wikipedia": "en:California Pizza Kitchen", "cuisine": "pizza", "name": "California Pizza Kitchen", "short_name": "CPK", "website": "http://www.cpk.com/locations/park-avenue-south/"}}, {"type": "node", "id": 3847053090, "lat": 40.7439118, "lon": -73.9813418, "tags": {"amenity": "restaurant", "name": "Lallisse"}}, {"type": "node", "id": 3959756841, "lat": 40.7441556, "lon": -73.9895824, "tags": {"addr:city": "New York", "addr:housenumber": "17", "addr:postcode": "10010", "addr:state": "NY", "addr:street": "West 26th Street", "amenity": "restaurant", "cuisine": "american", "name": "Maysville", "phone": "+1 646-490-8240"}}, {"type": "node", "id": 3960166158, "lat": 40.7448447, "lon": -73.9869413, "tags": {"amenity": "restaurant", "cuisine": "steak_house", "name": "Ben & Jack's Steakhouse"}}, {"type": "node", "id": 3966939347, "lat": 40.744603, "lon": -73.9854712, "tags": {"amenity": "restaurant", "name": "Milleseme", "wheelchair": "no"}}, {"type": "node", "id": 3970473673, "lat": 40.7439569, "lon": -73.9833596, "tags": {"amenity": "restaurant", "name": "Fresh & Co"}}, {"type": "node", "id": 4146376405, "lat": 40.7478213, "lon": -73.9878356, "tags": {"addr:housenumber": "1250", "addr:postcode": "10001", "addr:street": "Broadway", "amenity": "restaurant", "capacity": "300", "cocktails": "yes", "contact:email": "info@gaonnurinyc.com", "contact:facebook": "GAONNURINYC", "contact:instagram": "gaonnurinyc", "contact:phone": "+1 212-971-9045", "contact:website": "https://www.gaonnurinyc.com/", "cuisine": "korean", "drink:soju": "yes", "drink:wine": "yes", "level": "38", "name": "Gaonnuri", "name:ko": "\uac00\uc628\ub204\ub9ac", "opening_hours": "Mo-Th 17:30-23:30; Fr, Sa 17:00-24:00; Su 16:00-22:00", "reservation": "yes", "wheelchair": "yes"}}, {"type": "node", "id": 4167956349, "lat": 40.7462218, "lon": -73.9848538, "tags": {"addr:housenumber": "15", "addr:postcode": "10016", "addr:street": "East 31st Street", "amenity": "restaurant", "cuisine": "korean", "name": "Take31", "website": "http://www.mytake31.com"}}, {"type": "node", "id": 4167956350, "lat": 40.7461934, "lon": -73.9847787, "tags": {"addr:housenumber": "17", "addr:postcode": "10016", "addr:street": "East 31st Street", "amenity": "restaurant", "cuisine": "korean", "name": "Her Name is Han", "website": "http://www.hernameishan.com/"}}, {"type": "node", "id": 4193555491, "lat": 40.7503304, "lon": -73.9864698, "tags": {"addr:housenumber": "55", "addr:street": "West 35th Street", "amenity": "restaurant", "cuisine": "korean", "name": "Cho Dang Gol", "phone": "12126958222"}}, {"type": "node", "id": 4198113799, "lat": 40.7515794, "lon": -73.9858142, "tags": {"addr:city": "New York", "addr:housenumber": "59", "addr:postcode": "10018", "addr:state": "NY", "addr:street": "West 37th Street", "amenity": "restaurant", "contact:instagram": "https://www.instagram.com/cafechina/", "cuisine": "chinese", "fixme": "As of 2021/09/17 it is still under construction. Resurvey and add hours details once it's open.", "name": "Cafe China", "smoking": "outside", "takeaway": "yes", "website": "http://www.cafechinanyc.com/"}}, {"type": "node", "id": 4234840590, "lat": 40.7447266, "lon": -73.9811703, "tags": {"amenity": "restaurant", "internet_access": "wlan", "name": "Spicy Simphony"}}, {"type": "node", "id": 4262776953, "lat": 40.7475456, "lon": -73.9813305, "tags": {"addr:city": "New York", "addr:housenumber": "12", "addr:postcode": "10016", "addr:street": "Park Avenue", "amenity": "restaurant", "cocktails": "yes", "cuisine": "asian", "diet:vegan": "only", "drink:beer": "yes", "drink:liquor": "yes", "drink:sake": "yes", "drink:tea": "yes", "drink:wine": "yes", "name": "Franchia", "opening_hours": "Mo-Th 12:00-22:00; Fr 12:00-22:30; Sa 13:00-22:30; Su 17:00-21:30", "outdoor_seating": "street", "reservation": "recommended", "website": "https://www.franchia.com/"}}, {"type": "node", "id": 4365154093, "lat": 40.7443903, "lon": -73.9883011, "tags": {"addr:city": "New York", "addr:housenumber": "15", "addr:postcode": "10010", "addr:state": "NY", "addr:street": "West 27th Street", "amenity": "restaurant", "cuisine": "indian", "delivery": "no", "name": "Pondicheri", "opening_hours": "Mo-Fr 07:00-22:00; Sa 08:00-22:00; Su 09:00-21:00", "phone": "+1 646 878 4375", "smoking": "no", "takeaway": "yes", "website": "http://www.pondichericafe.com/new-york"}}, {"type": "node", "id": 4461697890, "lat": 40.7450031, "lon": -73.9873381, "tags": {"addr:postcode": "10001", "amenity": "restaurant", "cuisine": "seafood", "name": "L & W Oyster Company"}}, {"type": "node", "id": 4461699892, "lat": 40.7443707, "lon": -73.98779, "tags": {"addr:housenumber": "236", "addr:postcode": "10001", "addr:street": "5th Avenue", "amenity": "restaurant", "cuisine": "mediterranean", "name": "ilili"}}, {"type": "node", "id": 4480292845, "lat": 40.7444333, "lon": -73.9902995, "tags": {"addr:city": "New York", "addr:housenumber": "35", "addr:postcode": "10010", "addr:state": "NY", "addr:street": "West 26th Street", "amenity": "restaurant", "cuisine": "japanese", "name": "Maui Onion", "phone": "+1 201 548 4388", "website": "http://www.mauionion.org/"}}, {"type": "node", "id": 4502573289, "lat": 40.7467647, "lon": -73.9848226, "tags": {"addr:housenumber": "6", "addr:postcode": "10016", "addr:street": "East 32nd Street", "amenity": "restaurant", "cuisine": "japanese", "email": "info@ichiumi.com", "fax": "+1 212-725-1925", "name": "IchiUmi", "name:en": "Ichiumi Japanese Buffet", "opening_hours": "Mo-Su 11:45-15:30,16:00-22:00", "payment:american_express": "yes", "payment:discover_card": "yes", "payment:mastercard": "yes", "payment:visa": "yes", "phone": "+1 212-725-1333", "reservation": "yes", "website": "http://ichiumi.com"}}, {"type": "node", "id": 4503167568, "lat": 40.7474399, "lon": -73.9864528, "tags": {"addr:city": "New York", "addr:housenumber": "12", "addr:postcode": "10001", "addr:state": "NY", "addr:street": "West 32nd Street", "amenity": "restaurant", "contact:facebook": "https://www.facebook.com/pages/Woorjip/101885859904987", "cuisine": "korean", "delivery": "no", "drink:beer": "yes", "email": "info@woorijip32.com", "fax": "+1 212-244-4726", "level": "0", "name": "Woorijip", "opening_hours": "Mo-We 09:30-21:00; Fr-Su 09:30-22:00", "phone": "+1 212-244-1115", "self_service": "yes", "smoking": "no", "takeaway": "yes", "website": "http://woorijip32.com/"}}, {"type": "node", "id": 4509430011, "lat": 40.7438616, "lon": -73.9894745, "tags": {"addr:city": "New York", "addr:housenumber": "1133", "addr:postcode": "10010", "addr:state": "NY", "addr:street": "Broadway", "amenity": "restaurant", "cuisine": "indian", "delivery": "no", "name": "INDAY", "opening_hours": "Mo-Su 11:00-21:00", "phone": "+1 917 521 5012", "smoking": "no", "takeaway": "yes", "website": "http://indaynyc.com/"}}, {"type": "node", "id": 4552992889, "lat": 40.7442427, "lon": -73.9887217, "tags": {"addr:housenumber": "1150", "addr:postcode": "10001", "addr:street": "Broadway", "amenity": "restaurant", "bar": "yes", "cuisine": "american", "delivery": "yes", "name": "The Smith", "phone": "+1-212-685-4500", "takeaway": "yes", "website": "https://thesmithrestaurant.com/location/nomad/"}}, {"type": "node", "id": 4591231254, "lat": 40.7452909, "lon": -73.9903934, "tags": {"addr:city": "New York", "addr:housenumber": "55", "addr:postcode": "10001", "addr:state": "NY", "addr:street": "West 27th Street", "amenity": "restaurant", "cuisine": "new_american", "name": "Mulberry & Vine", "opening_hours": "Mo-Th 11:00-21:00; Fr-Sa 11:00-20:00", "outdoor_seating": "no", "phone": "+1 212 252 8468", "smoking": "no", "takeaway": "yes", "website": "https://www.mulberryandvine.com/"}}, {"type": "node", "id": 4708898489, "lat": 40.7501765, "lon": -73.9862874, "tags": {"amenity": "restaurant", "name": "Izakaya Mew", "name:en": "Izakaya Mew"}}, {"type": "node", "id": 4714345894, "lat": 40.7476739, "lon": -73.986996, "tags": {"addr:housenumber": "28", "addr:postcode": "10001", "addr:street": "West 32nd Street", "amenity": "restaurant", "cuisine": "japanese", "drink:sake": "yes", "drink:soju": "yes", "level": "0", "name": "Hana Michi", "opening_hours": "Tu 12:00-23:00; We-Fr 12:00-24:00; Sa 14:00-02:00; Su 14:00-22:30"}}, {"type": "node", "id": 4867303121, "lat": 40.7502806, "lon": -73.9904398, "tags": {"amenity": "restaurant", "brand": "Hooters", "brand:wikidata": "Q1025921", "brand:wikipedia": "en:Hooters", "cuisine": "burger", "name": "Hooters", "name:en": "Hooters NYC"}}, {"type": "node", "id": 4947760421, "lat": 40.7523558, "lon": -73.9835488, "tags": {"addr:housenumber": "21", "addr:street": "West 39th Street", "amenity": "restaurant", "cuisine": "chinese;tea", "delivery": "yes", "name": "Szechuan Gourmet", "name:en": "Szechuan Gourmet", "opening_hours": "Mo-Fr 11:30-22:00; Sa, Su 12:00-22:00", "payment:cash": "yes", "payment:credit_cards": "yes", "phone": "+1-212-921-0233", "reservation": "yes", "takeaway": "yes", "website": "https://szechuan-gourmet.com/", "wheelchair": "yes"}}, {"type": "node", "id": 4947761822, "lat": 40.7470756, "lon": -73.9850776, "tags": {"addr:housenumber": "1", "addr:street": "East 32nd Street", "amenity": "restaurant", "name": "Kang Ho Dong Baekjeong"}}, {"type": "node", "id": 5075011630, "lat": 40.7448905, "lon": -73.9885998, "tags": {"amenity": "restaurant", "cuisine": "fine_dining", "name": "Nomad", "opening_hours": "Mo-Su 09:00-22:00", "phone": "+1-347-472-5660", "website": "https://www.thenomadhotel.com/new-york/dining"}}, {"type": "node", "id": 5142544476, "lat": 40.7522319, "lon": -73.9841646, "tags": {"amenity": "restaurant", "bar": "yes", "cocktails": "yes", "cuisine": "cuban;chinese", "drink:beer": "yes", "drink:liquor": "yes", "drink:wine": "yes", "name": "Calle Dao", "opening_hours": "Mo-We 11:00-23:00; Th-Sa 11:00-24:00; Su 11:00-22:00", "phone": "+1-212-221-9002", "toilets": "yes", "toilets:unisex": "yes", "website": "https://www.calledao.com/bryant-park/", "wheelchair": "yes"}}, {"type": "node", "id": 5189146499, "lat": 40.7483977, "lon": -73.9855536, "tags": {"addr:city": "New York", "addr:housenumber": "350", "addr:postcode": "10118", "addr:state": "NY", "addr:street": "5th Avenue", "amenity": "restaurant", "cuisine": "sushi", "delivery": "yes", "name": "Sushi teria", "opening_hours": "Mo-Fr 11:00-09:00"}}, {"type": "node", "id": 5190742036, "lat": 40.7481919, "lon": -73.9864454, "tags": {"addr:city": "New York", "addr:housenumber": "20", "addr:postcode": "10001", "addr:state": "NY", "addr:street": "West 33rd Street", "amenity": "restaurant", "cocktails": "yes", "cuisine": "chicken", "description": "Spacious restaurant with a focus on chicken dishes and decor harkening to the Harlem Renaissance.", "diet:vegan": "yes", "diet:vegetarian": "yes", "drink:beer": "yes", "drink:liquor": "yes", "drink:wine": "yes", "name": "Turntable Chicken Jazz", "phone": "+1-212-714-9700", "reservation": "yes", "takeaway": "yes", "toilets": "yes", "toilets:unisex": "yes", "toilets:wheelchair": "yes", "website": "https://turntablenyc.com/"}}, {"type": "node", "id": 5193872436, "lat": 40.7459976, "lon": -73.9881746, "tags": {"amenity": "restaurant", "name": "The Breslin"}}, {"type": "node", "id": 5242318027, "lat": 40.7501946, "lon": -73.9863355, "tags": {"amenity": "restaurant", "name": "Cho Dang Gol"}}, {"type": "node", "id": 5242327895, "lat": 40.7497022, "lon": -73.9857794, "tags": {"amenity": "restaurant", "name": "Barn Joo 35"}}, {"type": "node", "id": 5242330303, "lat": 40.747407, "lon": -73.9863928, "tags": {"addr:housenumber": "10", "addr:postcode": "10001", "addr:street": "West 32nd Street", "amenity": "restaurant", "contact:email": "info@misskoreabbq.com", "contact:facebook": "miss KOREA BBQ", "contact:instagram": "misskoreabbq", "contact:phone": "+1 212-594-4963", "contact:twitter": "misskoreabbq", "contact:website": "https://www.misskoreabbq.com", "cuisine": "korean", "delivery": "10:00-21:00", "drink:beer": "yes", "drink:sake": "yes", "drink:soju": "yes", "level": "0;1;2", "name": "missKOREA BBQ", "opening_hours": "10:00-21:00", "reservation": "yes", "takeaway": "yes"}}, {"type": "node", "id": 5242331829, "lat": 40.7475599, "lon": -73.9869049, "tags": {"addr:housenumber": "22", "addr:postcode": "10001", "addr:street": "West 32nd Street", "amenity": "restaurant", "cocktails": "yes", "contact:email": "jongrobbq@gmail.com", "contact:facebook": "jongrobbqny", "contact:instagram": "jongrobbq_nyc", "contact:phone": "+1 212-473-2233", "contact:website": "http://www.jongrobbqny.com/", "cuisine": "korean", "delivery": "yes", "drink:beer": "yes", "drink:soju": "yes", "level": "1", "name": "Jongro BBQ", "opening_hours": "Mo-Th, Su 11:30-24:00; Fr, Sa 11:30-01:00", "opening_hours:covid19": "12:00-22:00", "reservation": "yes", "takeaway": "yes"}}, {"type": "node", "id": 5253549614, "lat": 40.7489862, "lon": -73.9834638, "tags": {"addr:housenumber": "1", "addr:postcode": "10016", "addr:street": "East 35th Street", "amenity": "restaurant", "name": "Royal 35 Steakhouse"}}, {"type": "node", "id": 5393341922, "lat": 40.7476232, "lon": -73.9861377, "tags": {"addr:housenumber": "9", "addr:postcode": "10001", "addr:street": "West 32nd Street", "amenity": "restaurant", "branch": "NY", "cuisine": "korean", "delivery": "07:30-22:30", "email": "contact@gammeeok.com", "level": "1", "name": "Gammeeok", "opening_hours": "24/7", "opening_hours:covid19": "09:00-22:00", "phone": "+1 212-868-1180", "takeaway": "yes", "website": "https://www.gammeeok.com"}}, {"type": "node", "id": 5395641129, "lat": 40.7482961, "lon": -73.9884959, "tags": {"addr:housenumber": "1271", "addr:street": "Broadway", "amenity": "restaurant", "bar": "yes", "cocktails": "yes", "cuisine": "american;breakfast", "diet:gluten_free": "yes", "diet:vegetarian": "yes", "drink:beer": "draught", "drink:liquor": "yes", "drink:wine": "yes", "happy_hours": "Mo-Fr 15:00-18:00", "name": "The Harold", "opening_hours": "Mo-Fr 07:00-23:00; Sa-Su 08:00-23:00", "phone": "+1-212-686-1888", "website": "http://www.theharoldnyc.com"}}, {"type": "node", "id": 5398461822, "lat": 40.7470115, "lon": -73.985841, "tags": {"addr:city": "New York", "addr:housenumber": "312", "addr:postcode": "10001", "addr:state": "NY", "addr:street": "5th Avenue", "amenity": "restaurant", "cuisine": "korean;chinese", "email": "plumpyduck@joomakbanjum.com", "level": "0", "name": "Joomak Banjum", "opening_hours": "Tu-Th 17:00-21:00; Fr, Sa 17:00-21:30", "phone": "+1 212-268-7888", "reservation": "yes", "website": "https://www.joomakbanjum.com/"}}, {"type": "node", "id": 5576503130, "lat": 40.752335, "lon": -73.9836718, "tags": {"addr:housenumber": "23", "addr:street": "West 39th Street", "amenity": "restaurant", "fax": "+1-212-869-3885", "happy_hours": "Mo-Fr 15:00-19:00", "name": "Windfall Lounge", "opening_hours": "Mo 15:00-23:00; Tu, We 15:00-00:00; Th, Fr 15:00-02:00", "payment:cash": "yes", "payment:credit_cards": "yes", "phone": "+1-212-869-4606", "reservation": "yes", "toilets": "yes", "website": "http://windfallnyc.com/", "wheelchair": "no"}}, {"type": "node", "id": 5590334865, "lat": 40.7445031, "lon": -73.9846308, "tags": {"addr:housenumber": "29", "addr:street": "East 29th Street", "amenity": "restaurant", "cuisine": "pizza;italian;coffee", "diet:vegetarian": "yes", "name": "Marta", "opening_hours": "Mo-Su 12:00-23:30", "payment:cash": "yes", "payment:credit_cards": "yes", "phone": "+1-212-651-3800", "reservation": "recommended", "takeaway": "yes", "website": "https://www.martamanhattan.com/", "wheelchair": "yes"}}, {"type": "node", "id": 5762528453, "lat": 40.746628, "lon": -73.9820041, "tags": {"addr:housenumber": "4", "addr:postcode": "10016", "addr:street": "Park Avenue", "amenity": "restaurant", "name": "Wolfgang\u2019s Steakhouse", "opening_hours": "Mo-Su 12:00-22:30", "phone": "+12128893369", "website": "http://wolfgangssteakhouse.net", "wikidata": "Q20979453"}}, {"type": "node", "id": 5781268723, "lat": 40.7523763, "lon": -73.9814434, "tags": {"addr:housenumber": "461", "addr:postcode": "10017", "addr:street": "5th Avenue", "amenity": "restaurant", "cuisine": "sushi", "name": "Sushi Ginza Onodera", "opening_hours": "Mo-Fr 12:00-15:00, 18:00-23:00, 09:00-18:00; Sa 18:00-23:00", "phone": "+1 212-390-0925", "reservation": "only", "website": "https://www.sushiginzaonoderanewyork.com"}}, {"type": "node", "id": 5812647053, "lat": 40.7516261, "lon": -73.9878421, "tags": {"amenity": "restaurant", "name": "Fresh & Co"}}, {"type": "node", "id": 5816276401, "lat": 40.7518625, "lon": -73.9890435, "tags": {"addr:housenumber": "152", "addr:street": "West 36th Street", "amenity": "restaurant", "cuisine": "french;sandwich;salad", "delivery": "yes", "diet:vegetarian": "yes", "drink:coffee": "yes", "drink:tea": "yes", "email": "info@macaroncafe.com", "name": "Macaron Caf\u00e9", "opening_hours": "Mo-Fr 07:00-19:30; Sa 09:00-19:00", "payment:contactless": "yes", "payment:debit_cards": "yes", "phone": "+1-212-564-3525", "takeaway": "yes", "website": "https://macaroncafe.com/", "wheelchair": "yes"}}, {"type": "node", "id": 5816276453, "lat": 40.751597, "lon": -73.9883856, "tags": {"addr:housenumber": "130", "addr:street": "West 36th Street", "amenity": "restaurant", "delivery": "yes", "name": "Chopstick House", "opening_hours": "Mo-Fr 10:30-23:30; Sa, Su 11:30-23:00", "phone": "+1-212-868-8090", "takeaway": "yes", "website": "https://gochopstickhouse.com/"}}, {"type": "node", "id": 5816354728, "lat": 40.7525209, "lon": -73.9899817, "tags": {"addr:housenumber": "207", "addr:street": "West 36th Street", "amenity": "restaurant", "cuisine": "steak", "drink:beer": "yes", "drink:coffee": "yes", "drink:liquor": "yes", "drink:wine": "yes", "email": "info@delmonicoskitchen.com", "name": "Delmonico's Kitchen", "opening_hours": "Sa 17:00-22:00; Su 17:00-21:00", "phone": "+1-212-695-5220", "reservation": "recommended", "takeaway": "yes", "website": "https://delmonicoskitchen.com/", "wheelchair": "yes"}}, {"type": "node", "id": 5871106370, "lat": 40.7459321, "lon": -73.9878023, "tags": {"addr:housenumber": "13", "addr:street": "29th Street", "amenity": "restaurant", "name": "Chandni Restaurant", "phone": "2126864456", "website": "http://chandnirestaurantny.com"}}, {"type": "node", "id": 5889475672, "lat": 40.7481678, "lon": -73.9862586, "tags": {"addr:housenumber": "18", "addr:street": "West 33rd Street", "amenity": "restaurant", "cuisine": "irish", "name": "Foley's"}}, {"type": "node", "id": 5889478365, "lat": 40.7486746, "lon": -73.9875038, "tags": {"addr:housenumber": "52", "addr:street": "West 33rd Street", "amenity": "restaurant", "cuisine": "french;bistro", "email": "info@petitpouletny.com", "name": "Petit Poulet", "opening_hours": "11:00-23:00", "phone": "+1 212-244-0440", "website": "https://petitpouletny.com"}}, {"type": "node", "id": 6013503383, "lat": 40.7466917, "lon": -73.9846896, "tags": {"addr:city": "New York", "addr:housenumber": "12", "addr:postcode": "10016", "addr:state": "NY", "addr:street": "East 32nd Street", "amenity": "restaurant", "cuisine": "korean", "diet:vegetarian": "yes", "name": "Hangawi", "phone": "+1-212-213-0077", "website": "http://hangawirestaurant.com/"}}, {"type": "node", "id": 6064400688, "lat": 40.7480981, "lon": -73.9874846, "tags": {"addr:housenumber": "43", "addr:street": "West 32nd Street", "amenity": "restaurant", "cocktails": "yes", "contact:instagram": "udonlab_nyc", "contact:phone": "+1 646-838-5338", "contact:website": "http://udonlab.com", "cuisine": "japanese;izakaya", "drink:beer": "draught; bottled", "drink:sake": "yes", "drink:soju": "yes", "drink:wine": "served", "level": "0", "name": "Udon Lab", "opening_hours": "Su-Th 11:00-23:00; Fr, Sa 11:00-02:00"}}, {"type": "node", "id": 6064439285, "lat": 40.7477457, "lon": -73.9871706, "tags": {"addr:housenumber": "32", "addr:postcode": "10001", "addr:street": "West 32nd Street", "amenity": "restaurant", "capacity": "140", "cocktails": "yes", "contact:facebook": "https://www.facebook.com/thekunjip/", "contact:instagram": "https://www.instagram.com/thekunjipnyc/", "cuisine": "korean", "drink:beer": "yes", "drink:soju": "yes", "drink:wine": "yes", "level": "0;1", "name": "The Kunjip", "name:ko": "\ub354\ud070\uc9d1", "opening_hours": "Su 00:00-03:00,06:30-03:00; Mo,Tu 06:30-03:00; We 06:30-24:00; Th-Sa 00:00-24:00", "payment:american_express": "yes", "payment:cash": "yes", "payment:mastercard": "yes", "payment:visa": "yes", "phone": "+1 212-564-8238", "reservation": "yes", "toilets": "yes", "website": "https://www.kunjip.com", "wheelchair": "yes"}}, {"type": "node", "id": 6064439585, "lat": 40.7477885, "lon": -73.9867366, "tags": {"addr:housenumber": "23", "addr:postcode": "10001", "addr:street": "West 32nd Street", "amenity": "restaurant", "contact:facebook": "https://www.facebook.com/pages/New-Wonjo/1488813761190378", "cuisine": "korean", "delivery": "yes", "drink:tea": "yes", "drink:wine": "yes", "email": "newwonjo@gmail.com", "fax": "+1 212-695-2084", "level": "0;1", "name": "New Wonjo", "name:ko": "\ub274\uc6d0\uc870", "opening_hours": "24/7", "phone": "+1 212-695-5815", "reservation": "yes", "takeaway": "yes", "toilets": "yes", "website": "http://newwonjo.com", "wheelchair": "limited"}}, {"type": "node", "id": 6225226697, "lat": 40.7504957, "lon": -73.9875816}, {"type": "node", "id": 6225226703, "lat": 40.7505049, "lon": -73.9875848}, {"type": "node", "id": 6225226704, "lat": 40.7504851, "lon": -73.9875899}, {"type": "node", "id": 6225226710, "lat": 40.750483, "lon": -73.9876012}, {"type": "node", "id": 6311990216, "lat": 40.7504909, "lon": -73.9819457, "tags": {"amenity": "restaurant", "cocktails": "yes", "cuisine": "japanese", "delivery": "yes", "drink:liquor": "yes", "drink:sake": "yes", "name": "Norikoh", "opening_hours": "Mo-Fr 11:00-22:00; Sa-Su 12:00-22:00", "phone": "+1-212-685-5600"}}, {"type": "node", "id": 6321410065, "lat": 40.7508098, "lon": -73.9840031, "tags": {"addr:housenumber": "5", "addr:street": "West 37th Street", "amenity": "restaurant", "cocktails": "yes", "contact:facebook": "https://www.facebook.com/pages/Reichenbach-Hall/133720086731508", "contact:twitter": "https://twitter.com/ReichenbachHall", "cuisine": "german", "drink:beer": "yes", "drink:wine": "yes", "internet_access": "wlan", "internet_access:fee": "no", "name": "Reichenbach Hall", "opening_hours": "Th-Sa 11:30-02:00; We 11:30-01:00; Mo, Tu, Su 11:30-24:00", "phone": "+1-212-302-7744", "reservation": "yes", "seats": "200", "website": "http://www.reichenbachhall.com"}}, {"type": "node", "id": 6348576200, "lat": 40.7500481, "lon": -73.9847324, "tags": {"addr:housenumber": "16", "addr:postcode": "10018", "addr:street": "West 36th Street", "alt_name": "CH 36", "amenity": "restaurant", "branch": "36th Street", "brand": "Clinton Hall", "capacity": "273", "cocktails": "yes", "cuisine": "new_american", "delivery": "yes", "drink:beer": "yes", "drink:wine": "yes", "email": "info@clintonhallny.com", "happy_hours": "Mo-Fr 16:00-19:00", "name": "Clinton Hall 36", "opening_hours": "Mo-We 12:00-01:00; Th-Sa 12:00-02:00; Su 12:00-12:00", "phone": "+1-212-695-0036", "reservation": "yes", "takeaway": "yes", "toilets": "yes", "toilets:access": "customers", "website": "https://clintonhallny.com/36th-street/"}}, {"type": "node", "id": 6352784394, "lat": 40.7465244, "lon": -73.980481, "tags": {"addr:housenumber": "120", "addr:postcode": "10016", "addr:street": "East 34th Street", "amenity": "restaurant", "cuisine": "middle_eastern", "drink:coffee": "yes", "drink:tea": "yes", "fax": "+1-212-532-1119", "name": "Miraj Healthy Grill", "phone": "+1-212-696-2818", "website": "https://www.mirajhealthygrill.com"}}, {"type": "node", "id": 6356581985, "lat": 40.7442489, "lon": -73.9831707, "tags": {"amenity": "restaurant", "name": "Kame Ramen"}}, {"type": "node", "id": 6371598588, "lat": 40.7504796, "lon": -73.9806195, "tags": {"amenity": "restaurant", "name": "Zuma"}}, {"type": "node", "id": 6394873173, "lat": 40.7499088, "lon": -73.9844632, "tags": {"addr:city": "New York", "addr:housenumber": "8", "addr:postcode": "10018", "addr:state": "NY", "addr:street": "West 36th Street", "amenity": "restaurant", "cocktails": "yes", "cuisine": "korean;barbecue", "drink:beer": "yes", "drink:liquor": "yes", "drink:wine": "yes", "name": "Yoon Haeundae Galbi", "opening_hours": "Mo-Su 11:34-14:30,17:00-23:00", "phone": "+1-212-244-5345", "reservation": "recommended", "start_date": "1964", "toilets": "yes", "toilets:unisex": "yes", "toilets:wheelchair": "yes", "website": "https://yoon-nyc.com/"}}, {"type": "node", "id": 6424147876, "lat": 40.7475798, "lon": -73.9861702, "tags": {"addr:housenumber": "9", "addr:postcode": "10001", "addr:street": "West 32nd Street", "amenity": "restaurant", "cuisine": "korean", "level": "0", "name": "Five Senses", "opening_hours": "Mo-Th 11:00-21:00; Fr-Su 11:00-22:00", "phone": "+1 212-441-0005", "website": "fivesensesnyc.com"}}, {"type": "node", "id": 6462874433, "lat": 40.7438416, "lon": -73.9849909, "tags": {"amenity": "restaurant", "bar": "yes", "cocktails": "yes", "cuisine": "chinese;japanese", "delivery": "yes", "drink:beer": "yes", "drink:liquor": "yes", "drink:wine": "yes", "fax": "+1-212-685-1520", "happy_hours": "Mo-Th 16:00-20:00; Fr 16:00-21:00", "name": "Chef 28", "opening_hours": "Mo-Fr 11:30-22:30; Su 12:00-22:30", "phone": "+1-212-685-8871", "takeaway": "yes", "website": "https://www.chef28.com"}}, {"type": "node", "id": 6554084385, "lat": 40.7524576, "lon": -73.9871786, "tags": {"addr:housenumber": "1374", "addr:street": "Broadway", "amenity": "restaurant", "cuisine": "sandwich", "name": "Mr. Broadway Kosher"}}, {"type": "node", "id": 6566684057, "lat": 40.7470894, "lon": -73.990326, "tags": {"amenity": "restaurant"}}, {"type": "node", "id": 6763864286, "lat": 40.7526496, "lon": -73.985124, "tags": {"amenity": "restaurant", "cuisine": "indian", "name": "Curry Dream"}}, {"type": "node", "id": 6807878874, "lat": 40.7448906, "lon": -73.9836804, "tags": {"addr:housenumber": "43", "addr:street": "East 30th Street", "amenity": "restaurant", "cocktails": "yes", "contact:email": "masonjarnyc@gmail.com", "contact:facebook": "https://www.facebook.com/MasonJarNY/", "contact:instagram": "https://www.instagram.com/masonjarnyc/", "contact:twitter": "https://www.twitter.com/MasonJarNYC", "cuisine": "barbecue", "drink:beer": "yes", "name": "The Mason Jar", "opening_hours": "We 11:30-01:00; Th-Sa 11:30-02:00; Mo, Tu, Su 11:30-00:00", "phone": "+1 212-213-3587", "reservation": "yes", "website": "https://masonjarny.com/"}}, {"type": "node", "id": 7041000285, "lat": 40.7515422, "lon": -73.9798731, "tags": {"amenity": "restaurant", "name": "Benjamin Prime"}}, {"type": "node", "id": 7079145390, "lat": 40.747835, "lon": -73.986847, "tags": {"addr:housenumber": "25", "addr:postcode": "10001", "addr:street": "West 32nd Street", "amenity": "restaurant", "contact:facebook": "https://www.facebook.com/bbqchickenktown", "contact:instagram": "https://www.instagram.com/bbqktownnyc", "cuisine": "korean;chimaek", "delivery": "yes", "drink:beer": "yes", "email": "gm@bbqktown.com", "name": "BB.Q Olive Chicken", "opening_hours": "Mo-Th 11:00-23:00; Fr, Sa 11:00-24:00", "payment:american_express": "yes", "payment:discover_card": "yes", "payment:mastercard": "yes", "payment:visa": "yes", "phone": "+1 212-967-8093", "takeaway": "yes", "website": "http://bbqktownnyc.com"}}, {"type": "node", "id": 7125928685, "lat": 40.748323, "lon": -73.9904886, "tags": {"addr:housenumber": "132", "addr:postcode": "10002", "addr:street": "West 31st Street", "amenity": "restaurant", "name": "Friendman\u2019s"}}, {"type": "node", "id": 7415539489, "lat": 40.7476494, "lon": -73.9834095, "tags": {"amenity": "restaurant", "name": "Guy & Gallard", "phone": "+1 212 684 3898", "website": "https://guyandgallard.com"}}, {"type": "node", "id": 7692783047, "lat": 40.7467776, "lon": -73.9897559, "tags": {"addr:housenumber": "838", "addr:postcode": "10001", "addr:street": "6th Avenue", "amenity": "restaurant", "name": "Sunseret Fresh"}}, {"type": "node", "id": 7951139837, "lat": 40.7472523, "lon": -73.9822072, "tags": {"addr:housenumber": "56", "addr:street": "East 34th Street", "amenity": "restaurant", "cuisine": "japanese", "drink:sake": "yes", "name": "Hamachi 34", "opening_hours": "Mo-Fr 11:30-22:00; Sa-Su 12:00-22:00", "phone": "+1-646-559-8800"}}, {"type": "node", "id": 8355860496, "lat": 40.7483096, "lon": -73.9904415, "tags": {"addr:street": "West 31st Street", "amenity": "restaurant", "cuisine": "noodle", "delivery": "yes", "name": "Classic Tonkotsu Ramen Shop"}}, {"type": "node", "id": 8996587926, "lat": 40.7468478, "lon": -73.9850316, "tags": {"amenity": "restaurant", "cuisine": "asian", "name": "Bentos", "phone": "+1 646 684 4006", "website": "http://thebentos.com"}}, {"type": "node", "id": 9015418871, "lat": 40.7467911, "lon": -73.9824398, "tags": {"amenity": "restaurant", "name": "The Ainsworth Midtown"}}, {"type": "node", "id": 9091328243, "lat": 40.7486013, "lon": -73.9867586, "tags": {"addr:city": "New York", "addr:housenumber": "33", "addr:postcode": "10001", "addr:state": "NY", "addr:street": "West 33rd Street", "amenity": "restaurant", "cuisine": "chinese", "name": "Dim Sum Palace", "phone": "+1-646-649-3607", "website": "https://www.dimsumpalace.com/"}}, {"type": "node", "id": 9092875648, "lat": 40.746876, "lon": -73.9845761, "tags": {"addr:city": "New York", "addr:housenumber": "11", "addr:postcode": "10016", "addr:state": "NY", "addr:street": "East 32nd Street", "amenity": "restaurant", "cuisine": "korean", "name": "Bangia", "opening_hours": "Su-Th 18:00-01:00; Fr-Sa 18:00-03:30", "phone": "+1-212-679-6790", "website": "https://www.bangianyc.com/"}}, {"type": "node", "id": 9101703556, "lat": 40.7500083, "lon": -73.9821348, "tags": {"addr:city": "New York", "addr:housenumber": "13", "addr:postcode": "10016", "addr:state": "NY", "addr:street": "East 37th Street", "amenity": "restaurant", "cuisine": "chinese", "name": "CHILI \u7f8e\u9e97", "opening_hours": "11:00-21:45; Th-Sa 11:00-22:15", "phone": "+1-646-882-0666", "website": "https://chilinyc.com/"}}, {"type": "node", "id": 9235536634, "lat": 40.7504377, "lon": -73.9907795, "tags": {"addr:city": "New York", "addr:housenumber": "425", "addr:postcode": "10001", "addr:state": "NY", "addr:street": "7th Avenue", "amenity": "restaurant", "cuisine": "pizza", "name": "Rosa's Pizza", "phone": "+16469983044"}}, {"type": "node", "id": 9253544617, "lat": 40.751653, "lon": -73.9903779, "tags": {"addr:city": "New York", "addr:housenumber": "460", "addr:postcode": "10001", "addr:state": "NY", "addr:street": "7th Avenue", "amenity": "restaurant", "cuisine": "pizza", "name": "99 \u00a2 Delicious Pizza", "opening_hours": "Mo-Su 09:00-04:00", "phone": "+1 917-261-4052", "website": "https://www.99centdeliciouspizzamenu.com/"}}, {"type": "node", "id": 9491020917, "lat": 40.7454468, "lon": -73.9865063, "tags": {"amenity": "restaurant", "cuisine": "asian", "name": "Hortus NYC"}}, {"type": "node", "id": 9496907917, "lat": 40.7523314, "lon": -73.9805676, "tags": {"amenity": "restaurant", "name": "Stone Bridgetown Pizza & Salad"}}, {"type": "node", "id": 9508244826, "lat": 40.747815, "lon": -73.9867152, "tags": {"addr:city": "New York", "addr:housenumber": "32", "addr:postcode": "10001", "addr:state": "NY", "addr:street": "West 32nd Street", "addr:unit": "Floor 3", "amenity": "restaurant", "contact:email": "info@anytimenyc.com", "contact:facebook": "AnytimeNYC", "contact:instagram": "anytimenyc", "contact:phone": "+1 646-669-7733", "contact:website": "https://www.anytimenyc.com/", "cuisine": "korean", "delivery": "yes", "level": "2", "name": "Anytime NYC", "takeaway": "yes"}}, {"type": "node", "id": 9530089580, "lat": 40.7521025, "lon": -73.9877735, "tags": {"addr:city": "New York", "addr:housenumber": "1369", "addr:postcode": "10018", "addr:state": "NY", "addr:street": "Broadway", "amenity": "restaurant", "cuisine": "pizza", "name": "Encore Pizza"}}, {"type": "node", "id": 9644541105, "lat": 40.7480141, "lon": -73.9872738, "tags": {"addr:housenumber": "37", "addr:postcode": "10001", "addr:street": "West 32nd Street", "amenity": "restaurant", "contact:email": "info@antoyabbq.com", "contact:facebook": "Antoyabbq", "contact:instagram": "antoyqbbq", "contact:phone": "+1 215-695-3131", "contact:website": "https://antoyabbq.com", "cuisine": "korean", "delivery": "yes", "level": "0", "name": "Antoya Korean BBQ", "opening_hours": "Su-Th 11:30-22:45; Fr, Sa 11:30-02:45", "reservation": "yes", "takeaway": "yes"}}, {"type": "node", "id": 9644596253, "lat": 40.7473128, "lon": -73.9861372, "tags": {"amenity": "restaurant", "cuisine": "korean;gimbap;sushi", "delivery": "no", "level": "0", "name": "E-MO", "opening_hours": "Mo-Sa 09:00-19:00", "payment:cash": "only", "phone": "+1 212-594-1466", "takeaway": "only"}}, {"type": "node", "id": 9644596254, "lat": 40.7472762, "lon": -73.9861356, "tags": {"addr:housenumber": "2", "addr:postcode": "10001", "addr:street": "West 32nd Street", "amenity": "restaurant", "contact:instagram": "hongchencheonnyc", "contact:phone": "+1 212-695-7272", "cuisine": "korean", "delivery": "yes", "level": "1", "name": "Hong Chun Cheon Dak Galbi", "opening_hours": "11:30-21:30", "takeaway": "yes"}}, {"type": "node", "id": 9644596255, "lat": 40.7472788, "lon": -73.9860623, "tags": {"addr:housenumber": "2", "addr:postcode": "10001", "addr:street": "West 32nd Street", "amenity": "restaurant", "cuisine": "japanese;ramen", "delivery": "yes", "email": "kushikushiyaki@gmail.com", "level": "0", "name": "Kushi Kushi Yaki", "opening_hours": "Su-Th 12:00-21:30; Th-Sa 12:00-23:00", "phone": "+1 212-279-3075", "reservation": "yes", "takeaway": "yes", "website": "https://www.kushikushiyaki.com"}}, {"type": "node", "id": 9644596256, "lat": 40.7472957, "lon": -73.9860976, "tags": {"amenity": "restaurant", "contact:facebook": "KokuRamenNYC", "contact:instagram": "kokuramennyc", "contact:phone": "+1 212-643-8488", "contact:website": "https://www.koku-ramen.com", "cuisine": "japanese;ramen", "delivery": "yes", "diet:vegan": "yes", "level": "0", "name": "Koku Ramen", "opening_hours": "11:30-19:30", "takeaway": "yes"}}, {"type": "node", "id": 9644596257, "lat": 40.747333, "lon": -73.9864401, "tags": {"addr:housenumber": "10", "addr:postcode": "10001", "addr:street": "West 32nd Street", "amenity": "restaurant", "cocktails": "yes", "cuisine": "korean", "delivery": "Su-We 17:00-24:00; Th-Sa 17:00-01:00", "email": "info@muinyny.com", "level": "4", "name": "MUI", "opening_hours": "Su-We 15:00-02:00; Th-Sa 17:00-04:00", "phone": "+1 212-244-1900", "reservation": "yes", "website": "https://www.nymui.com"}}, {"type": "node", "id": 9644596258, "lat": 40.7473223, "lon": -73.9861681, "tags": {"addr:housenumber": "2", "addr:postcode": "10001", "addr:street": "West 32nd Street", "amenity": "restaurant", "branch": "Manhattan", "contact:instagram": "abikocurry", "contact:phone": "+1 212-695-0888", "contact:website": "https://www.abiko-curry.com", "cuisine": "asian", "delivery": "yes", "drink:beer": "yes", "level": "0", "name": "Abiko Curry", "opening_hours": "11:00-21:00", "takeaway": "yes"}}, {"type": "node", "id": 9644617681, "lat": 40.7476554, "lon": -73.9870454, "tags": {"addr:housenumber": "28", "addr:postcode": "10001", "addr:street": "West 32nd Street", "amenity": "restaurant", "cocktails": "yes", "cuisine": "korean;gastropub", "drink:soju": "yes", "facebook": "itaewonnyc32", "level": "1", "name": "Itaewon Pocha", "opening_hours": "Tu-Th 17:00-02:00; Fr, Sa 17:00-04:00; Su 14:00-02:00", "phone": "+1 212-967-2228", "reservation": "yes", "website": "http://www.itaewongastropub.com"}}, {"type": "node", "id": 9656848883, "lat": 40.7454489, "lon": -73.9805254, "tags": {"amenity": "restaurant", "name": "Poke Bowl"}}, {"type": "node", "id": 9659208992, "lat": 40.747152, "lon": -73.9819585, "tags": {"amenity": "restaurant", "cuisine": "indian", "name": "Masala King", "outdoor_seating": "sidewalk"}}, {"type": "node", "id": 9793798565, "lat": 40.7466986, "lon": -73.9855994, "tags": {"addr:city": "New York", "addr:housenumber": "307", "addr:postcode": "10016", "addr:state": "NY", "addr:street": "5th Avenue", "amenity": "restaurant", "cuisine": "korean;barbecue", "diet:meat": "yes", "name": "Let's Meat", "phone": "+12128890089", "website": "https://www.letsmeatnyc.com/"}}, {"type": "node", "id": 9838678804, "lat": 40.751969, "lon": -73.9896709, "tags": {"amenity": "restaurant", "name": "Greek from Greece"}}, {"type": "node", "id": 9838737047, "lat": 40.7520011, "lon": -73.9906484, "tags": {"addr:housenumber": "213", "addr:street": "West 35th Street", "amenity": "restaurant", "branch": "Midtown West", "cuisine": "sandwich", "delivery": "yes", "email": "info@cutlets.co", "level": "0", "name": "Cutlets", "opening_hours": "Mo-Fr 09:00-21:00", "phone": "+1 212-518-6091", "takeaway": "yes", "website": "https://www.cutlets.co/location/midtown-west/"}}, {"type": "node", "id": 9906273052, "lat": 40.7456123, "lon": -73.988821, "tags": {"addr:housenumber": "1185", "addr:postcode": "10001", "addr:street": "Broadway", "amenity": "restaurant", "name": "Zaytinya", "website": "https://www.zaytinya.com/"}}, {"type": "node", "id": 9951145664, "lat": 40.7520118, "lon": -73.9912601, "tags": {"addr:housenumber": "224", "addr:street": "West 35th Street", "amenity": "restaurant", "contact:facebook": "sticktomypot", "contact:instagram": "sticktomypot_potstickers", "cuisine": "dumpling", "delivery": "yes", "level": "0", "name": "Stick To My Pot Potstickers", "opening_hours": "Mo-Fr 11:00-20:00; Sa, Su 11:00-19:00", "phone": "+1 646-882-2003", "takeaway": "yes", "website": "https://www.sticktomypot.com/"}}, {"type": "node", "id": 10000674926, "lat": 40.7448287, "lon": -73.9890064, "tags": {"addr:city": "New York", "addr:housenumber": "1165", "addr:postcode": "10001", "addr:state": "NY", "addr:street": "Broadway", "amenity": "restaurant", "diet:gluten_free": "yes", "diet:vegan": "yes", "email": "max@scenstudio.com", "name": "Scen", "opening_hours": "Mo-Fr 11:00-19:00", "phone": "+1-646-649-5658", "website": "https://www.scenstudio.com"}}, {"type": "node", "id": 10650625205, "lat": 40.7457045, "lon": -73.985371, "tags": {"addr:city": "New York", "addr:housenumber": "13", "addr:postcode": "10016", "addr:state": "NY", "addr:street": "East 30th Street", "amenity": "restaurant", "contact:instagram": "okdongsik", "cuisine": "korean", "email": "okdongsik@handhospitality.com", "level": "1", "name": "Okdongsik", "opening_hours": "Mo off; Tu-Su 11:00-14:30,17:00-21:00", "phone": "+1-929-237-8164", "reservation": "yes", "start_date": "2022-11", "website": "https://www.handhospitality.com/okdongsik", "website:booking": "https://resy.com/cities/ny/okdongsik"}}, {"type": "node", "id": 10694203546, "lat": 40.7470064, "lon": -73.9853791, "tags": {"addr:city": "New York", "addr:floor": "2", "addr:housenumber": "315", "addr:postcode": "10016", "addr:state": "NY", "addr:street": "5th Avenue", "amenity": "restaurant", "cuisine": "korean", "name": "Soju Haus", "phone": "+1-212-213-2177", "website": "https://www.sojuhaus.com/"}}, {"type": "node", "id": 10796001208, "lat": 40.7470406, "lon": -73.9859223, "tags": {"addr:city": "New York", "addr:floor": "2", "addr:housenumber": "312", "addr:postcode": "10001", "addr:state": "NY", "addr:street": "5th Avenue", "amenity": "restaurant", "branch": "Manhattan", "cuisine": "korean", "name": "Gopchang Story BBQ", "opening_hours": "Mo-Th 16:00-01:00; Fr,Sa 12:00-15:00,17:00-03:00; Su 12:00-15:00,17:00-01:00", "phone": "+1-646-371-9469", "reservation": "yes", "website": "https://www.gopchangbbq.com/"}}, {"type": "way", "id": 265042463, "nodes": [2706939961, 2706939988, 1709979773, 2706940001, 2706939976, 2706939961], "tags": {"addr:city": "New York", "addr:housenumber": "110", "addr:postcode": "10016", "addr:state": "NY", "addr:street": "Madison Avenue", "amenity": "restaurant", "building": "yes", "building:colour": "#E1E7EB", "building:levels": "17", "building:material": "brick", "cuisine": "korean", "height": "46", "name": "on", "nycdoitt:bin": "1016940", "opening_hours": "12:00-14:15,18:00-23:00", "phone": "(917) 261-4326", "roof:material": "concrete", "roof:shape": "flat", "website": "https://www.onnewyork.net/"}}, {"type": "way", "id": 319773435, "nodes": [6225226710, 6225226704, 6225226697, 6225226703, 3262342840, 3262342841, 3262342849, 3262342842, 6225226710], "tags": {"addr:city": "New York", "addr:housenumber": "102", "addr:postcode": "10001", "addr:state": "NY", "addr:street": "West 35th Street", "amenity": "restaurant", "branch": "Herald Square", "building": "yes", "cuisine": "dessert", "name": "Wafels & Dinges", "opening_hours": "09:00-22:00", "phone": "+1 646-257-2592", "website": "https://dinges.nyc/", "wheelchair": "yes"}}]}